P/2012 K3 (Gibbs),e,13.1894,125.8193,172.2415,3.628381,0.1426050,0.42256239,173.5548,12/16.0/2022,2000,g 15.0,4.0
# From MPC 88326
P/2012 NJ (La Sagra),e,84.5755,315.5900,338.3848,8.465939,0.0400121,0.84675725,153.4759,12/16.0/2022,2000,g 14.5,4.0
# From MPC 81470
P/2012 O1 (McNaught),e,7.4271,91.9313,238.3271,3.541666,0.1478743,0.59430278,204.6635,12/16.0/2022,2000,g 17.5,4.0
# From MPC 80899
P/2012 O2 (McNaught),e,24.4695,120.6837,183.4767,3.626159,0.1427361,0.53203534,188.4371,12/16.0/2022,2000,g 17.0,4.0
# From MPC 82320
P/2012 T2 (PANSTARRS),e,12.5674,73.7160,310.7556,5.728191,0.0718916,0.16232757,252.7673,12/16.0/2022,2000,g 10.0,4.0
# From MPC 80900
P/2012 T3 (PANSTARRS),e,9.5585,114.3703,195.5398,6.151219,0.0646044,0.61672210,250.4001,12/16.0/2022,2000,g 15.0,4.0
# From MPC 82720
P/2012 U2 (PANSTARRS),e,10.7597,185.3261,228.2551,7.132082,0.0517463,0.49993802,190.5605,12/16.0/2022,2000,g 12.5,4.0
# From MPC 84024
P/2012 US27 (Siding Spring),e,39.3685,49.2059,0.8248,5.164811,0.0839697,0.64825100,303.2993,12/16.0/2022,2000,g 13.5,4.0
# From MPC 82721
P/2012 WA34 (Lemmon-PANSTARRS),e,6.0815,93.5599,356.5805,4.681756,0.0972951,0.34393822,340.0954,12/16.0/2022,2000,g 13.5,4.0
# From MPC 82721
P/2013 AL76 (Catalina),e,144.8697,146.0119,27.0415,6.499490,0.0594820,0.68600592,218.0927,12/16.0/2022,2000,g 16.0,4.0
# From MPEC 2022-K19
P/2013 EW90,e,31.7918,160.2910,346.0575,4.112545,0.1181784,0.19466683,79.1669,12/16.0/2022,2000,g 14.3,4.0
# From MPC 91612
P/2013 G1 (Kowalski),e,5.4582,221.3127,51.5453,6.897298,0.0544109,0.51124256,179.2230,12/16.0/2022,2000,g 11.0,4.0
# From MPC 84025
P/2013 G4 (PANSTARRS),e,5.9160,339.6345,214.6270,4.438492,0.1054025,0.40921218,18.9425,12/16.0/2022,2000,g 15.0,4.0
# From MPC 91613
P/2013 J2 (McNaught),e,15.5114,289.3476,37.8690,6.223098,0.0634884,0.65736001,215.4522,12/16.0/2022,2000,g 13.0,4.0
# From MPC 86229
P/2013 N3 (PANSTARRS),e,2.1737,17.4711,323.9734,7.395166,0.0490097,0.59304099,157.9382,12/16.0/2022,2000,g 13.0,4.0
# From MPC 85834
P/2013 N5 (PANSTARRS),e,23.4620,187.1552,176.9430,6.797039,0.0556192,0.73252153,191.7836,12/16.0/2022,2000,g 17.0,4.0
# From MPC 85834
P/2013 P1 (PANSTARRS),e,18.7234,160.5983,138.2527,8.582040,0.0392029,0.60461513,140.2659,12/16.0/2022,2000,g 12.0,4.0
# From MPEC 2022-V95
P/2013 R3 (Catalina-PANSTARRS),e,0.8651,341.9821,11.2755,3.032106,0.1866756,0.27562683,274.0653,12/16.0/2022,2000,g 14.0,4.0
# From unp
P/2013 R3-A (Catalina-PANSTARRS),e,0.8642,341.9369,11.3544,3.031860,0.1866983,0.27555748,274.1245,12/16.0/2022,2000,g  9.0,4.0
# From MPEC 2015-M77
P/2013 R3-B (Catalina-PANSTARRS),e,0.8654,341.9929,11.2892,3.032080,0.1866780,0.27560277,274.0598,12/16.0/2022,2000,g  9.0,4.0
# From MPC 85835
P/2013 T1 (PANSTARRS),e,24.3035,10.0804,346.1668,5.856880,0.0695352,0.62429532,237.5982,12/16.0/2022,2000,g 16.5,4.0
# From MPC 86643
P/2013 T2 (Schwartz),e,9.4574,0.8009,345.5815,3.491807,0.1510528,0.50108133,167.8249,12/16.0/2022,2000,g 16.0,4.0
# From MPC 91613
P/2013 W1 (PANSTARRS),e,4.6965,117.8402,1.2295,3.487536,0.1513303,0.59288339,125.1169,12/16.0/2022,2000,g 17.5,4.0
# From MPC101095
P/2013 YG46 (Spacewatch),e,7.8576,48.8366,242.6011,3.273690,0.1663978,0.45461639,356.4571,12/16.0/2022,2000,g 10.0,4.0
# From MPC 89728
P/2014 A2 (Hill),e,24.5452,106.6327,356.1463,5.927248,0.0683006,0.64566732,229.0922,12/16.0/2022,2000,g 15.0,4.0
# From MPC 92981
P/2014 A3 (PANSTARRS),e,13.7167,229.9770,214.1222,4.608332,0.0996296,0.24661244,347.3186,12/16.0/2022,2000,g 12.0,4.0
# From MPC102095
P/2014 C1 (TOTAS),e,2.6932,167.8190,23.9275,3.032350,0.1866530,0.45112924,250.0536,12/16.0/2022,2000,g 15.5,4.0
# From MPEC 2022-WD2
C/2014 F3 (Sheppard-Trujillo),e,6.5418,326.3875,4.4924,14.59327,0.0176797,0.60885709,10.0017,12/16.0/2022,2000,g  6.0,4.0
# From MPC 98560
P/2014 L2 (NEOWISE),e,5.1988,149.3464,182.7177,6.305255,0.0622515,0.64793109,191.0515,12/16.0/2022,2000,g 12.0,4.0
# From MPC 90769
P/2014 L3 (Hill),e,6.2677,115.4934,178.7062,8.178007,0.0421437,0.77272361,130.2492,12/16.0/2022,2000,g 16.0,4.0
# From MPC 91614
P/2014 M4 (PANSTARRS),e,3.3430,263.1870,148.0371,5.868491,0.0693289,0.59558740,201.6607,12/16.0/2022,2000,g 15.0,4.0
# From MPEC 2022-K19
P/2014 MG4 (Spacewatch-PANSTARRS),e,9.3669,311.7273,299.0407,5.013320,0.0878043,0.25892025,304.5485,12/16.0/2022,2000,g  9.5,4.0
# From MPC 98560
P/2014 O3 (PANSTARRS),e,7.7962,87.6404,204.7844,7.576413,0.0472616,0.38447580,149.5256,12/16.0/2022,2000,g 10.5,4.0
# From MPEC 2022-WQ9
C/2014 OG392 (PANSTARRS),e,9.0329,145.8020,254.3623,12.25328,0.0229787,0.18631081,8.5782,12/16.0/2022,2000,g  6.0,4.0
# From MPC 91616
P/2014 U4 (PANSTARRS),e,6.4292,11.8845,347.8349,3.508774,0.1499584,0.46486353,100.5244,12/16.0/2022,2000,g 18.0,4.0
# From MPEC 2022-X67
C/2014 UN271 (Bernardinelli-Bernstein),h,01/22.3719/2031,95.4296,189.8966,326.2465,1.000867,10.945599,2000,2.5,3.2
# From MPC 95211
P/2014 V1 (PANSTARRS),e,22.5256,166.1994,177.6540,5.479486,0.0768412,0.53444647,221.2606,12/16.0/2022,2000,g 14.0,4.0
# From MPC 93586
P/2014 W1 (PANSTARRS),e,8.8360,246.2302,152.1327,4.466878,0.1043994,0.38937244,321.5581,12/16.0/2022,2000,g 15.5,4.0
# From MPC105542
P/2014 W4 (PANSTARRS),e,15.2832,33.3882,67.5978,6.588611,0.0582792,0.35331575,148.1662,12/16.0/2022,2000,g 11.0,4.0
# From MPC 94281
P/2014 X1 (Elenin),e,26.0471,61.5632,33.8694,6.204907,0.0637678,0.70955808,185.3091,12/16.0/2022,2000,g 15.0,4.0
# From MPC 92275
P/2015 A3 (PANSTARRS),e,172.5409,277.3201,249.4552,7.815166,0.0451125,0.85036887,128.9649,12/16.0/2022,2000,g 20.0,4.0
# From MPC 99270
P/2015 B1 (PANSTARRS),e,18.0531,352.9223,188.8753,9.490788,0.0337094,0.36650263,89.4832,12/16.0/2022,2000,g  8.5,4.0
# From MPC109141
P/2015 B4 (Lemmon-PANSTARRS),e,1.7633,266.0614,227.2575,8.517003,0.0396528,0.56055451,113.9462,12/16.0/2022,2000,g 11.0,4.0
# From MPC101096
P/2015 C1 (TOTAS-Gibbs),e,13.9175,348.7929,178.1095,6.574782,0.0584631,0.56095230,163.3716,12/16.0/2022,2000,g 12.5,4.0
# From MPC109141
P/2015 D5 (Kowalski),e,20.5333,74.0720,39.6629,8.953997,0.0367857,0.48990992,117.0132,12/16.0/2022,2000,g  9.0,4.0
# From MPC 96866
P/2015 D6 (Lemmon-PANSTARRS),e,20.2062,45.8606,125.0138,7.136049,0.0517032,0.36133874,141.1373,12/16.0/2022,2000,g 10.5,4.0
# From MPEC 2021-P47
P/2015 HG16 (PANSTARRS),e,18.8534,57.4533,47.5403,4.779745,0.0943185,0.35212419,296.4783,12/16.0/2022,2000,g 12.5,4.0
# From MPC 95213
P/2015 K5 (PANSTARRS),e,39.9432,134.2137,106.3209,6.726357,0.0564981,0.55190373,155.6734,12/16.0/2022,2000,g 13.5,4.0
# From MPC107684
P/2015 M2 (PANSTARRS),e,3.9695,86.5835,225.9855,7.243125,0.0505609,0.17981915,134.0173,12/16.0/2022,2000,g  8.5,4.0
# From MPEC 2021-P47
C/2015 O1 (PANSTARRS),h,02/20.2124/2018,127.1766,299.8280,89.5355,1.001423,3.720861,2000,6.5,4.0
# From MPC 99819
P/2015 P4 (PANSTARRS),e,8.7177,104.6813,280.6686,6.046724,0.0662863,0.58572474,166.9325,12/16.0/2022,2000,g 14.0,4.0
# From MPEC 2022-K19
P/2015 PD229 (Cameron-ISON),e,2.0250,342.6577,352.6896,7.192806,0.0510924,0.32757165,136.7818,12/16.0/2022,2000,g 11.5,2.0
# From MPC 96867
P/2015 Q2 (Pimentel),e,146.5487,228.5321,244.6449,7.353417,0.0494277,0.75064231,131.3126,12/16.0/2022,2000,g 15.5,4.0
# From MPC 98562
P/2015 R1 (PANSTARRS),e,22.6980,48.3274,300.5796,5.880522,0.0691163,0.63429338,188.3384,12/16.0/2022,2000,g 14.0,4.0
# From MPC 95734
P/2015 R2 (PANSTARRS),e,15.4850,168.5964,149.8545,4.485447,0.1037517,0.45277017,284.2152,12/16.0/2022,2000,g 14.5,4.0
# From MPC 96280
P/2015 T3 (PANSTARRS),e,13.0937,120.5019,178.6330,4.326181,0.1095335,0.50818108,359.9227,12/21.0/2014,2000,g 14.0,4.0
# From MPC102953
P/2015 TO19 (Lemmon-PANSTARRS),e,6.5008,321.6286,89.1818,4.551984,0.1014853,0.35933821,251.0921,12/16.0/2022,2000,g 14.0,4.0
# From MPC110080
P/2015 TP200 (LINEAR),e,8.7805,7.0190,82.4412,7.264813,0.0503347,0.53619868,112.7120,12/16.0/2022,2000,g 11.0,4.0
# From MPC115881
C/2015 V1 (PANSTARRS),e,139.2311,197.1385,179.7073,2406,0.0000084,0.99822017,0.0000,12/16.4520/2017,2000,g  6.5,4.0
# From MPC101098
P/2015 W2 (Catalina),e,11.6100,294.1500,117.5529,7.290785,0.0500660,0.63525434,131.6601,12/16.0/2022,2000,g 13.0,4.0
# From MPEC 2022-OB6
C/2015 XY1 (Lemmon),e,148.8516,281.5731,196.1385,29971,0.0000002,0.99973558,0.0000,04/25.5147/2018,2000,g  5.5,4.0
# From MPEC 2022-OB6
P/2015 X3 (PANSTARRS),e,24.4032,77.2710,306.7580,5.003381,0.0880661,0.44003563,236.2068,12/16.0/2022,2000,g 15.0,4.0
# From MPC119995
C/2015 X5 (PANSTARRS),e,124.3197,122.3056,27.5418,9193,0.0000011,0.99926089,0.0000,12/27.1017/2017,2000,g  7.5,4.0
# From MPC115881
P/2015 X6 (PANSTARRS),e,4.5649,106.9327,329.7819,2.752376,0.2158452,0.17314554,170.4822,12/16.0/2022,2000,g 16.0,4.0
# From MPEC 2022-O08
C/2016 A1 (PANSTARRS),e,121.2160,128.1664,10.0866,6919,0.0000017,0.99923160,0.0000,11/20.6830/2017,2000,g  6.0,4.0
# From MPC100282
P/2016 A2 (Christensen),e,26.4036,291.6178,141.2857,4.753620,0.0950971,0.27087690,260.8865,12/16.0/2022,2000,g 11.5,4.0
# From MPEC 2022-OB6
P/2016 A3 (PANSTARRS),e,8.5109,187.2231,340.9208,7.880049,0.0445565,0.38602861,91.7887,12/16.0/2022,2000,g 10.0,4.0
# From MPC102098
P/2016 A7 (PANSTARRS),e,16.6029,221.4972,352.5293,5.035111,0.0872350,0.56443523,217.3618,12/16.0/2022,2000,g 16.0,4.0
# From MPC109143
P/2016 BA14 (PANSTARRS),e,18.8970,180.5131,351.9684,3.026674,0.1871783,0.66453300,102.3729,12/16.0/2022,2000,g 21.0,4.0
# From MPEC 2021-P47
P/2016 G1 (PANSTARRS),e,10.9711,204.0184,111.1450,2.582744,0.2374554,0.21074287,150.5981,12/16.0/2022,2000,g 14.0,4.0
# From MPEC 2017-D91
P/2016 J1-A (PANSTARRS),e,14.3291,199.8094,47.0611,3.172496,0.1744225,0.22769672,51.9885,12/16.0/2022,2000,g 16.5,4.0
# From MPEC 2017-A77
P/2016 J1-B (PANSTARRS),e,14.3318,199.8143,46.9524,3.172132,0.1744525,0.22754760,52.1352,12/16.0/2022,2000,g 17.0,4.0
# From MPEC 2022-ED3
C/2016 M1 (PANSTARRS),e,90.8770,92.2590,209.9366,90091,0.0000000,0.99997542,0.0000,08/10.5254/2018,2000,g  5.0,4.0
# From MPEC 2021-P47
